{
    "links": {
        "self": "http://www.neowsapp.com/rest/v1/neo/3759315?api_key=iIulBulltgU6a56xZRHN4H3l9WmuAYTsLGpBGhQ2"
    },
    "id": "3759315",
    "neo_reference_id": "3759315",
    "name": "(2016 RP20)",
    "designation": "2016 RP20",
    "nasa_jpl_url": "http://ssd.jpl.nasa.gov/sbdb.cgi?sstr=3759315",
    "absolute_magnitude_h": 25.6,
    "estimated_diameter": {
        "kilometers": {
            "estimated_diameter_min": 0.0201629919,
            "estimated_diameter_max": 0.0450858206
        },
        "meters": {
            "estimated_diameter_min": 20.1629919443,
            "estimated_diameter_max": 45.0858206172
        },
        "miles": {
            "estimated_diameter_min": 0.0125286985,
            "estimated_diameter_max": 0.0280150214
        },
        "feet": {
            "estimated_diameter_min": 66.1515504905,
            "estimated_diameter_max": 147.9193637137
        }
    },
    "is_potentially_hazardous_asteroid": false,
    "close_approach_data": [
        {
            "close_approach_date": "2016-09-12",
            "close_approach_date_full": "2016-Sep-12 01:46",
            "epoch_date_close_approach": 1473644760000,
            "relative_velocity": {
                "kilometers_per_second": "9.8556739051",
                "kilometers_per_hour": "35480.4260581984",
                "miles_per_hour": "22046.1569582178"
            },
            "miss_distance": {
                "astronomical": "0.0307493219",
                "lunar": "11.9614862191",
                "kilometers": "4600033.060184353",
                "miles": "2858328.0011679514"
            },
            "orbiting_body": "Earth"
        }
    ],
    "orbital_data": {
        "orbit_id": "3",
        "orbit_determination_date": "2017-04-06 08:23:57",
        "first_observation_date": "2016-09-06",
        "last_observation_date": "2016-09-12",
        "data_arc_in_days": 6,
        "observations_used": 28,
        "orbit_uncertainty": "8",
        "minimum_orbit_intersection": ".00975986",
        "jupiter_tisserand_invariant": "3.689",
        "epoch_osculation": "2457640.5",
        "eccentricity": ".5055000180251069",
        "semi_major_axis": "1.972679918559912",
        "inclination": "8.177869023177456",
        "ascending_node_longitude": "172.1633843784809",
        "orbital_period": "1012.006640521048",
        "perihelion_distance": ".9754901841701102",
        "perihelion_argument": "209.4774792064029",
        "aphelion_distance": "2.969869652949714",
        "perihelion_time": "2457668.862842979662",
        "mean_anomaly": "349.9105173189168",
        "mean_motion": ".3557288910818294",
        "equinox": "J2000",
        "orbit_class": {
            "orbit_class_type": "APO",
            "orbit_class_description": "Near-Earth asteroid orbits which cross the Earth’s orbit similar to that of 1862 Apollo",
            "orbit_class_range": "a (semi-major axis) > 1.0 AU; q (perihelion) < 1.017 AU"
        }
    },
    "is_sentry_object": false
}